{"fetched_at":"2026-07-09T07:59:47.838Z","source":"https://celestrak.org/NORAD/elements/gp.php?GROUP=spire&FORMAT=JSON","constellation":"spire","records":[{"OBJECT_NAME":"LEMUR-1","OBJECT_ID":"2014-033AL","EPOCH":"2026-07-08T22:03:32.487264","CLASSIFICATION_TYPE":"U","MEAN_MOTION":14.85324329,"ECCENTRICITY":0.0048317,"INCLINATION":97.7901,"RA_OF_ASC_NODE":339.2449,"ARG_OF_PERICENTER":8.5943,"MEAN_ANOMALY":351.6089,"EPHEMERIS_TYPE":0,"NORAD_CAT_ID":40044,"ELEMENT_SET_NO":999,"REV_AT_EPOCH":64869,"BSTAR":0.00014819226,"MEAN_MOTION_DOT":0.00001245,"MEAN_MOTION_DDOT":0},{"OBJECT_NAME":"LEMUR-2-GREENBERG","OBJECT_ID":"2017-042N","EPOCH":"2026-07-08T23:20:53.494368","CLASSIFICATION_TYPE":"U","MEAN_MOTION":15.32018187,"ECCENTRICITY":0.00071462,"INCLINATION":97.3832,"RA_OF_ASC_NODE":10.5085,"ARG_OF_PERICENTER":285.9327,"MEAN_ANOMALY":74.1127,"EPHEMERIS_TYPE":0,"NORAD_CAT_ID":42837,"ELEMENT_SET_NO":999,"REV_AT_EPOCH":49172,"BSTAR":0.00038353707,"MEAN_MOTION_DOT":0.00011793,"MEAN_MOTION_DDOT":0},{"OBJECT_NAME":"LEMUR-2-ANDIS","OBJECT_ID":"2017-042P","EPOCH":"2026-07-08T22:49:12.150048","CLASSIFICATION_TYPE":"U","MEAN_MOTION":15.35747627,"ECCENTRICITY":0.00071057,"INCLINATION":97.3685,"RA_OF_ASC_NODE":10.7481,"ARG_OF_PERICENTER":284.4305,"MEAN_ANOMALY":75.615,"EPHEMERIS_TYPE":0,"NORAD_CAT_ID":42838,"ELEMENT_SET_NO":999,"REV_AT_EPOCH":49179,"BSTAR":0.00041045421,"MEAN_MOTION_DOT":0.00014212,"MEAN_MOTION_DDOT":0},{"OBJECT_NAME":"LEMUR-2-MONSON","OBJECT_ID":"2017-042Q","EPOCH":"2026-07-08T23:07:45.952320","CLASSIFICATION_TYPE":"U","MEAN_MOTION":15.28644155,"ECCENTRICITY":0.00051337,"INCLINATION":97.4094,"RA_OF_ASC_NODE":10.438,"ARG_OF_PERICENTER":274.0465,"MEAN_ANOMALY":86.0188,"EPHEMERIS_TYPE":0,"NORAD_CAT_ID":42839,"ELEMENT_SET_NO":999,"REV_AT_EPOCH":49149,"BSTAR":0.00034877031,"MEAN_MOTION_DOT":0.00009647,"MEAN_MOTION_DDOT":0},{"OBJECT_NAME":"LEMUR-2-FURIAUS","OBJECT_ID":"2017-042R","EPOCH":"2026-07-08T11:00:35.222400","CLASSIFICATION_TYPE":"U","MEAN_MOTION":15.30975722,"ECCENTRICITY":0.0006516,"INCLINATION":97.3781,"RA_OF_ASC_NODE":7.9032,"ARG_OF_PERICENTER":356.1929,"MEAN_ANOMALY":3.9261,"EPHEMERIS_TYPE":0,"NORAD_CAT_ID":42840,"ELEMENT_SET_NO":999,"REV_AT_EPOCH":49146,"BSTAR":0.00037716981,"MEAN_MOTION_DOT":0.00011223,"MEAN_MOTION_DDOT":0},{"OBJECT_NAME":"LEMUR-2-PETERG","OBJECT_ID":"2017-042S","EPOCH":"2026-07-08T22:45:16.101792","CLASSIFICATION_TYPE":"U","MEAN_MOTION":15.34864591,"ECCENTRICITY":0.00029308,"INCLINATION":97.3999,"RA_OF_ASC_NODE":15.0281,"ARG_OF_PERICENTER":250.3592,"MEAN_ANOMALY":109.7335,"EPHEMERIS_TYPE":0,"NORAD_CAT_ID":42841,"ELEMENT_SET_NO":999,"REV_AT_EPOCH":49177,"BSTAR":0.00045426881,"MEAN_MOTION_DOT":0.00015292,"MEAN_MOTION_DDOT":0},{"OBJECT_NAME":"LEMUR-2-DEMBITZ","OBJECT_ID":"2017-042T","EPOCH":"2026-07-08T17:45:22.592448","CLASSIFICATION_TYPE":"U","MEAN_MOTION":15.30969559,"ECCENTRICITY":0.00051261,"INCLINATION":97.3834,"RA_OF_ASC_NODE":11.2222,"ARG_OF_PERICENTER":303.4427,"MEAN_ANOMALY":56.6324,"EPHEMERIS_TYPE":0,"NORAD_CAT_ID":42842,"ELEMENT_SET_NO":999,"REV_AT_EPOCH":49164,"BSTAR":0.00039206163,"MEAN_MOTION_DOT":0.00011664,"MEAN_MOTION_DDOT":0},{"OBJECT_NAME":"LEMUR-2-ZACHARY","OBJECT_ID":"2017-042W","EPOCH":"2026-07-08T06:49:32.301696","CLASSIFICATION_TYPE":"U","MEAN_MOTION":15.52227477,"ECCENTRICITY":0.00023152,"INCLINATION":97.3592,"RA_OF_ASC_NODE":21.3972,"ARG_OF_PERICENTER":284.3315,"MEAN_ANOMALY":75.7681,"EPHEMERIS_TYPE":0,"NORAD_CAT_ID":42845,"ELEMENT_SET_NO":999,"REV_AT_EPOCH":49247,"BSTAR":0.0005596613,"MEAN_MOTION_DOT":0.00033943,"MEAN_MOTION_DDOT":0},{"OBJECT_NAME":"LEMUR-2-AMANDA-SVANTE","OBJECT_ID":"2021-034B","EPOCH":"2026-07-08T17:45:33.921216","CLASSIFICATION_TYPE":"U","MEAN_MOTION":15.35673063,"ECCENTRICITY":0.00042729,"INCLINATION":97.575,"RA_OF_ASC_NODE":268.613,"ARG_OF_PERICENTER":158.5579,"MEAN_ANOMALY":201.5844,"EPHEMERIS_TYPE":0,"NORAD_CAT_ID":48269,"ELEMENT_SET_NO":999,"REV_AT_EPOCH":28436,"BSTAR":0.00070941292,"MEAN_MOTION_DOT":0.00024581,"MEAN_MOTION_DDOT":0},{"OBJECT_NAME":"LEMUR-2-SPECIAL-K","OBJECT_ID":"2021-034F","EPOCH":"2026-07-08T18:48:22.999392","CLASSIFICATION_TYPE":"U","MEAN_MOTION":15.72370976,"ECCENTRICITY":0.00058642,"INCLINATION":97.5632,"RA_OF_ASC_NODE":278.3223,"ARG_OF_PERICENTER":219.6394,"MEAN_ANOMALY":140.4441,"EPHEMERIS_TYPE":0,"NORAD_CAT_ID":48273,"ELEMENT_SET_NO":999,"REV_AT_EPOCH":28507,"BSTAR":0.0014929865,"MEAN_MOTION_DOT":0.00202245,"MEAN_MOTION_DDOT":0},{"OBJECT_NAME":"LEMUR-2-EMBRIONOVIS","OBJECT_ID":"2023-084AQ","EPOCH":"2026-07-08T22:26:05.364384","CLASSIFICATION_TYPE":"U","MEAN_MOTION":15.38115648,"ECCENTRICITY":0.00078283,"INCLINATION":97.631,"RA_OF_ASC_NODE":334.9806,"ARG_OF_PERICENTER":230.6435,"MEAN_ANOMALY":129.4116,"EPHEMERIS_TYPE":0,"NORAD_CAT_ID":56970,"ELEMENT_SET_NO":999,"REV_AT_EPOCH":17102,"BSTAR":0.00026448343,"MEAN_MOTION_DOT":0.00009847,"MEAN_MOTION_DDOT":0},{"OBJECT_NAME":"LEMUR-2-DEVERILL-M-T","OBJECT_ID":"2023-100F","EPOCH":"2026-07-07T16:45:47.686176","CLASSIFICATION_TYPE":"U","MEAN_MOTION":15.40821036,"ECCENTRICITY":0.00047974,"INCLINATION":99.446,"RA_OF_ASC_NODE":233.3957,"ARG_OF_PERICENTER":329.3522,"MEAN_ANOMALY":30.7437,"EPHEMERIS_TYPE":0,"NORAD_CAT_ID":57391,"ELEMENT_SET_NO":999,"REV_AT_EPOCH":16440,"BSTAR":0.0003956978,"MEAN_MOTION_DOT":0.00016121,"MEAN_MOTION_DDOT":0},{"OBJECT_NAME":"LEMUR-2-BASS","OBJECT_ID":"2023-174D","EPOCH":"2026-07-08T22:17:42.468864","CLASSIFICATION_TYPE":"U","MEAN_MOTION":15.43844277,"ECCENTRICITY":0.00079703,"INCLINATION":97.3841,"RA_OF_ASC_NODE":274.9551,"ARG_OF_PERICENTER":96.9389,"MEAN_ANOMALY":263.2766,"EPHEMERIS_TYPE":0,"NORAD_CAT_ID":58259,"ELEMENT_SET_NO":999,"REV_AT_EPOCH":14871,"BSTAR":0.00028203304,"MEAN_MOTION_DOT":0.00012717,"MEAN_MOTION_DDOT":0},{"OBJECT_NAME":"LEMUR-2-JK0903EM1407","OBJECT_ID":"2023-174CJ","EPOCH":"2026-07-08T22:23:40.104384","CLASSIFICATION_TYPE":"U","MEAN_MOTION":15.528305,"ECCENTRICITY":0.00041933,"INCLINATION":97.3915,"RA_OF_ASC_NODE":281.0332,"ARG_OF_PERICENTER":53.9307,"MEAN_ANOMALY":306.2334,"EPHEMERIS_TYPE":0,"NORAD_CAT_ID":58336,"ELEMENT_SET_NO":999,"REV_AT_EPOCH":14910,"BSTAR":0.00032614204,"MEAN_MOTION_DOT":0.00020142,"MEAN_MOTION_DDOT":0},{"OBJECT_NAME":"LEMUR-2-MJR092620","OBJECT_ID":"2023-174CN","EPOCH":"2026-07-08T18:53:35.851200","CLASSIFICATION_TYPE":"U","MEAN_MOTION":15.45696002,"ECCENTRICITY":0.00059364,"INCLINATION":97.3969,"RA_OF_ASC_NODE":280.2255,"ARG_OF_PERICENTER":51.2586,"MEAN_ANOMALY":308.9193,"EPHEMERIS_TYPE":0,"NORAD_CAT_ID":58340,"ELEMENT_SET_NO":999,"REV_AT_EPOCH":14898,"BSTAR":0.0003135493,"MEAN_MOTION_DOT":0.00015065,"MEAN_MOTION_DDOT":0},{"OBJECT_NAME":"LEMUR-2-NIMBUS2000","OBJECT_ID":"2024-022A","EPOCH":"2026-07-08T15:29:08.176992","CLASSIFICATION_TYPE":"U","MEAN_MOTION":15.40918823,"ECCENTRICITY":0.00094074,"INCLINATION":97.4096,"RA_OF_ASC_NODE":39.9264,"ARG_OF_PERICENTER":49.8701,"MEAN_ANOMALY":310.3369,"EPHEMERIS_TYPE":0,"NORAD_CAT_ID":58899,"ELEMENT_SET_NO":999,"REV_AT_EPOCH":13557,"BSTAR":0.00039954574,"MEAN_MOTION_DOT":0.00016384,"MEAN_MOTION_DDOT":0}]}
